[{"OBJECT_NAME":"STARLINK-36649","OBJECT_ID":"2026-033S","EPOCH":"2026-03-17T14:00:01.999872","MEAN_MOTION":15.55120261,"ECCENTRICITY":0.00014536,"INCLINATION":42.9994,"RA_OF_ASC_NODE":223.764,"ARG_OF_PERICENTER":279.6008,"MEAN_ANOMALY":178.2021,"EPHEMERIS_TYPE":0,"CLASSIFICATION_TYPE":"U","NORAD_CAT_ID":67837,"ELEMENT_SET_NO":999,"REV_AT_EPOCH":593,"BSTAR":-0.031374785,"MEAN_MOTION_DOT":-0.01912619,"MEAN_MOTION_DDOT":0},{"OBJECT_NAME":"STARLINK-36654","OBJECT_ID":"2026-033T","EPOCH":"2026-03-17T14:00:01.999872","MEAN_MOTION":15.53024547,"ECCENTRICITY":0.00014326,"INCLINATION":42.9998,"RA_OF_ASC_NODE":223.8725,"ARG_OF_PERICENTER":270.5158,"MEAN_ANOMALY":143.2276,"EPHEMERIS_TYPE":0,"CLASSIFICATION_TYPE":"U","NORAD_CAT_ID":67838,"ELEMENT_SET_NO":999,"REV_AT_EPOCH":593,"BSTAR":-0.028732158,"MEAN_MOTION_DOT":-0.01651018,"MEAN_MOTION_DDOT":0},{"OBJECT_NAME":"STARLINK-36652","OBJECT_ID":"2026-033U","EPOCH":"2026-03-17T14:00:01.999872","MEAN_MOTION":15.51000831,"ECCENTRICITY":0.00012228,"INCLINATION":42.9995,"RA_OF_ASC_NODE":223.9693,"ARG_OF_PERICENTER":259.1035,"MEAN_ANOMALY":115.2809,"EPHEMERIS_TYPE":0,"CLASSIFICATION_TYPE":"U","NORAD_CAT_ID":67839,"ELEMENT_SET_NO":999,"REV_AT_EPOCH":593,"BSTAR":-0.012344037,"MEAN_MOTION_DOT":-0.00675247,"MEAN_MOTION_DDOT":0},{"OBJECT_NAME":"STARLINK-36651","OBJECT_ID":"2026-033V","EPOCH":"2026-03-17T14:00:01.999872","MEAN_MOTION":15.52899201,"ECCENTRICITY":0.000195,"INCLINATION":42.9993,"RA_OF_ASC_NODE":223.8623,"ARG_OF_PERICENTER":271.204,"MEAN_ANOMALY":146.6223,"EPHEMERIS_TYPE":0,"CLASSIFICATION_TYPE":"U","NORAD_CAT_ID":67840,"ELEMENT_SET_NO":999,"REV_AT_EPOCH":593,"BSTAR":-0.032006592,"MEAN_MOTION_DOT":-0.01810852,"MEAN_MOTION_DDOT":0},{"OBJECT_NAME":"STARLINK-36656","OBJECT_ID":"2026-033W","EPOCH":"2026-03-17T14:00:01.999872","MEAN_MOTION":15.54028813,"ECCENTRICITY":0.00015083,"INCLINATION":42.999,"RA_OF_ASC_NODE":223.7848,"ARG_OF_PERICENTER":276.2822,"MEAN_ANOMALY":172.8501,"EPHEMERIS_TYPE":0,"CLASSIFICATION_TYPE":"U","NORAD_CAT_ID":67841,"ELEMENT_SET_NO":999,"REV_AT_EPOCH":593,"BSTAR":-0.032602207,"MEAN_MOTION_DOT":-0.01909111,"MEAN_MOTION_DDOT":0},{"OBJECT_NAME":"STARLINK-36653","OBJECT_ID":"2026-033X","EPOCH":"2026-03-17T14:00:01.999872","MEAN_MOTION":15.52986002,"ECCENTRICITY":0.0001689,"INCLINATION":42.9996,"RA_OF_ASC_NODE":223.8355,"ARG_OF_PERICENTER":272.818,"MEAN_ANOMALY":155.8818,"EPHEMERIS_TYPE":0,"CLASSIFICATION_TYPE":"U","NORAD_CAT_ID":67842,"ELEMENT_SET_NO":999,"REV_AT_EPOCH":593,"BSTAR":-0.03161632,"MEAN_MOTION_DOT":-0.01796146,"MEAN_MOTION_DDOT":0},{"OBJECT_NAME":"STARLINK-36589","OBJECT_ID":"2026-033Y","EPOCH":"2026-03-17T14:00:01.999872","MEAN_MOTION":15.5406359,"ECCENTRICITY":0.00015092,"INCLINATION":42.9996,"RA_OF_ASC_NODE":223.7609,"ARG_OF_PERICENTER":270.2844,"MEAN_ANOMALY":188.3536,"EPHEMERIS_TYPE":0,"CLASSIFICATION_TYPE":"U","NORAD_CAT_ID":67843,"ELEMENT_SET_NO":999,"REV_AT_EPOCH":593,"BSTAR":-0.032497361,"MEAN_MOTION_DOT":-0.0190586,"MEAN_MOTION_DDOT":0},{"OBJECT_NAME":"STARLINK-36598","OBJECT_ID":"2026-033Z","EPOCH":"2026-03-17T14:00:01.999872","MEAN_MOTION":15.50483775,"ECCENTRICITY":0.00017255,"INCLINATION":42.9998,"RA_OF_ASC_NODE":223.9517,"ARG_OF_PERICENTER":301.713,"MEAN_ANOMALY":79.3164,"EPHEMERIS_TYPE":0,"CLASSIFICATION_TYPE":"U","NORAD_CAT_ID":67844,"ELEMENT_SET_NO":999,"REV_AT_EPOCH":593,"BSTAR":0.0005737151,"MEAN_MOTION_DOT":0.00033345,"MEAN_MOTION_DDOT":0},{"OBJECT_NAME":"STARLINK-36606","OBJECT_ID":"2026-033AA","EPOCH":"2026-03-17T14:00:01.999872","MEAN_MOTION":15.57568842,"ECCENTRICITY":0.00012522,"INCLINATION":42.9997,"RA_OF_ASC_NODE":223.5439,"ARG_OF_PERICENTER":278.5446,"MEAN_ANOMALY":267.5297,"EPHEMERIS_TYPE":0,"CLASSIFICATION_TYPE":"U","NORAD_CAT_ID":67845,"ELEMENT_SET_NO":999,"REV_AT_EPOCH":593,"BSTAR":-0.028732773,"MEAN_MOTION_DOT":-0.01919423,"MEAN_MOTION_DDOT":0},{"OBJECT_NAME":"STARLINK-36658","OBJECT_ID":"2026-033AB","EPOCH":"2026-03-17T14:00:01.999872","MEAN_MOTION":15.50897202,"ECCENTRICITY":0.00017681,"INCLINATION":42.9994,"RA_OF_ASC_NODE":223.9005,"ARG_OF_PERICENTER":268.7968,"MEAN_ANOMALY":133.0721,"EPHEMERIS_TYPE":0,"CLASSIFICATION_TYPE":"U","NORAD_CAT_ID":67846,"ELEMENT_SET_NO":999,"REV_AT_EPOCH":593,"BSTAR":-0.009688653,"MEAN_MOTION_DOT":-0.0053748,"MEAN_MOTION_DDOT":0},{"OBJECT_NAME":"STARLINK-36618","OBJECT_ID":"2026-033AC","EPOCH":"2026-03-17T14:00:01.999872","MEAN_MOTION":15.88936311,"ECCENTRICITY":0.00015765,"INCLINATION":42.9755,"RA_OF_ASC_NODE":219.9986,"ARG_OF_PERICENTER":292.4226,"MEAN_ANOMALY":213.4341,"EPHEMERIS_TYPE":0,"CLASSIFICATION_TYPE":"U","NORAD_CAT_ID":67847,"ELEMENT_SET_NO":999,"REV_AT_EPOCH":593,"BSTAR":-0.0025127087,"MEAN_MOTION_DOT":-0.0068659,"MEAN_MOTION_DDOT":0},{"OBJECT_NAME":"STARLINK-36660","OBJECT_ID":"2026-033AD","EPOCH":"2026-03-17T14:00:01.999872","MEAN_MOTION":15.50526087,"ECCENTRICITY":0.00013928,"INCLINATION":42.9999,"RA_OF_ASC_NODE":223.985,"ARG_OF_PERICENTER":249.3959,"MEAN_ANOMALY":117.6824,"EPHEMERIS_TYPE":0,"CLASSIFICATION_TYPE":"U","NORAD_CAT_ID":67848,"ELEMENT_SET_NO":999,"REV_AT_EPOCH":593,"BSTAR":0.00049709875,"MEAN_MOTION_DOT":0.00028873,"MEAN_MOTION_DDOT":0},{"OBJECT_NAME":"STARLINK-36602","OBJECT_ID":"2026-033AE","EPOCH":"2026-03-17T14:00:01.999872","MEAN_MOTION":15.50535683,"ECCENTRICITY":0.00019155,"INCLINATION":42.9998,"RA_OF_ASC_NODE":223.9368,"ARG_OF_PERICENTER":279.0141,"MEAN_ANOMALY":107.9991,"EPHEMERIS_TYPE":0,"CLASSIFICATION_TYPE":"U","NORAD_CAT_ID":67849,"ELEMENT_SET_NO":999,"REV_AT_EPOCH":593,"BSTAR":0.00057437138,"MEAN_MOTION_DOT":0.00033447,"MEAN_MOTION_DDOT":0},{"OBJECT_NAME":"STARLINK-36840","OBJECT_ID":"2026-034A","EPOCH":"2026-03-17T15:13:02.827200","MEAN_MOTION":15.81106853,"ECCENTRICITY":0.00017738,"INCLINATION":53.1589,"RA_OF_ASC_NODE":171.5435,"ARG_OF_PERICENTER":223.916,"MEAN_ANOMALY":136.1723,"EPHEMERIS_TYPE":0,"CLASSIFICATION_TYPE":"U","NORAD_CAT_ID":67850,"ELEMENT_SET_NO":999,"REV_AT_EPOCH":519,"BSTAR":0.0020602309,"MEAN_MOTION_DOT":0.00431528,"MEAN_MOTION_DDOT":0},{"OBJECT_NAME":"STARLINK-36348","OBJECT_ID":"2026-034B","EPOCH":"2026-03-17T00:01:37.179264","MEAN_MOTION":15.8101125,"ECCENTRICITY":0.0001448,"INCLINATION":53.1584,"RA_OF_ASC_NODE":174.7063,"ARG_OF_PERICENTER":101.0422,"MEAN_ANOMALY":259.0764,"EPHEMERIS_TYPE":0,"CLASSIFICATION_TYPE":"U","NORAD_CAT_ID":67851,"ELEMENT_SET_NO":999,"REV_AT_EPOCH":509,"BSTAR":0.0019223,"MEAN_MOTION_DOT":0.00399316,"MEAN_MOTION_DDOT":0},{"OBJECT_NAME":"STARLINK-36276","OBJECT_ID":"2026-034C","EPOCH":"2026-03-17T00:00:32.361984","MEAN_MOTION":15.80955802,"ECCENTRICITY":0.00019828,"INCLINATION":53.1589,"RA_OF_ASC_NODE":174.7015,"ARG_OF_PERICENTER":80.0427,"MEAN_ANOMALY":280.0819,"EPHEMERIS_TYPE":0,"CLASSIFICATION_TYPE":"U","NORAD_CAT_ID":67852,"ELEMENT_SET_NO":999,"REV_AT_EPOCH":509,"BSTAR":0.0013598024,"MEAN_MOTION_DOT":0.00277545,"MEAN_MOTION_DDOT":0}]
