STARLINK-36649          
1 67837U 26033S   26076.58335648 -.01912619  00000+0 -31375-1 0  9998
2 67837  42.9994 223.7640 0001453 279.6008 178.2021 15.55120261  5935
STARLINK-36654          
1 67838U 26033T   26076.58335648 -.01651018  00000+0 -28732-1 0  9995
2 67838  42.9998 223.8725 0001432 270.5158 143.2276 15.53024547  5930
STARLINK-36652          
1 67839U 26033U   26076.58335648 -.00675247  00000+0 -12344-1 0  9997
2 67839  42.9995 223.9693 0001222 259.1035 115.2809 15.51000831  5936
STARLINK-36651          
1 67840U 26033V   26076.58335648 -.01810852  00000+0 -32007-1 0  9991
2 67840  42.9993 223.8623 0001950 271.2040 146.6223 15.52899201  5933
STARLINK-36656          
1 67841U 26033W   26076.58335648 -.01909111  00000+0 -32602-1 0  9990
2 67841  42.9990 223.7848 0001508 276.2822 172.8501 15.54028813  5936
STARLINK-36653          
1 67842U 26033X   26076.58335648 -.01796146  00000+0 -31616-1 0  9997
2 67842  42.9996 223.8355 0001689 272.8180 155.8818 15.52986002  5939
STARLINK-36589          
1 67843U 26033Y   26076.58335648 -.01905860  00000+0 -32497-1 0  9991
2 67843  42.9996 223.7609 0001509 270.2844 188.3536 15.54063590  5939
STARLINK-36598          
1 67844U 26033Z   26076.58335648  .00033345  00000+0  57372-3 0  9990
2 67844  42.9998 223.9517 0001725 301.7130  79.3164 15.50483775  5933
STARLINK-36606          
1 67845U 26033AA  26076.58335648 -.01919423  00000+0 -28733-1 0  9991
2 67845  42.9997 223.5439 0001252 278.5446 267.5297 15.57568842  5932
STARLINK-36658          
1 67846U 26033AB  26076.58335648 -.00537480  00000+0 -96887-2 0  9996
2 67846  42.9994 223.9005 0001768 268.7968 133.0721 15.50897202  5932
STARLINK-36618          
1 67847U 26033AC  26076.58335648 -.00686590  00000+0 -25127-2 0  9993
2 67847  42.9755 219.9986 0001576 292.4226 213.4341 15.88936311  5936
STARLINK-36660          
1 67848U 26033AD  26076.58335648  .00028873  00000+0  49710-3 0  9991
2 67848  42.9999 223.9850 0001392 249.3959 117.6824 15.50526087  5937
STARLINK-36602          
1 67849U 26033AE  26076.58335648  .00033447  00000+0  57437-3 0  9990
2 67849  42.9998 223.9368 0001915 279.0141 107.9991 15.50535683  5934
STARLINK-36840          
1 67850U 26034A   26076.63406050  .00431528  00000+0  20602-2 0  9990
2 67850  53.1589 171.5435 0001773 223.9160 136.1723 15.81106853  5192
STARLINK-36348          
1 67851U 26034B   26076.00112476  .00399316  00000+0  19223-2 0  9993
2 67851  53.1584 174.7063 0001448 101.0422 259.0764 15.81011250  5091
STARLINK-36276          
1 67852U 26034C   26076.00037456  .00277545  00000+0  13598-2 0  9996
2 67852  53.1589 174.7015 0001982  80.0427 280.0819 15.80955802  5092
